NORAD_CAT_ID,OBJECT_NAME,OBJECT_TYPE,EPOCH,MEAN_MOTION,ECCENTRICITY,INCLINATION,RA_OF_ASC_NODE,ARG_OF_PERICENTER,MEAN_ANOMALY,BSTAR,MEAN_MOTION_DOT,MEAN_MOTION_DDOT,TLE_LINE0,TLE_LINE1,TLE_LINE2,SEMIMAJOR_AXIS,PERIOD,APOGEE,PERIGEE,DECAYED
54202.0,STARLINK-5205,PAYLOAD,2022-11-03 16:00:00,15.881496300000002,0.0019705,53.2174,111.4003,197.6834,124.8994,-0.0048184,-0.01365975,0.00052008,0 STARLINK-5205,1 54202U 22141AX  22307.66667824 -.01365975  52008-3 -48184-2 0  9995,2 54202  53.2174 111.4003 0019705 197.6834 124.8994 15.88149630  1303,6685.608,90.672,320.647,294.2990000000001,0.0
54202.0,STARLINK-5205,PAYLOAD,2022-11-03 22:00:00,15.8747513,0.0017061,53.2172,110.1374,204.2185,108.2307,-0.0048486999999999,-0.01323997,0.00048828,0 STARLINK-5205,1 54202U 22141AX  22307.91667824 -.01323997  48828-3 -48487-2 0  9992,2 54202  53.2172 110.1374 0017061 204.2185 108.2307 15.87475130  1305,6687.501,90.71,320.776,297.957,0.0
54202.0,STARLINK-5205,PAYLOAD,2022-11-04 06:00:00,15.86629309,0.0014140999999999,53.2176,108.4514,211.9085,206.0958,-0.0052272,-0.01201222,0.0,0 STARLINK-5205,1 54202U 22141AX  22308.25001157 -.01201222  00000-0 -52272-2 0  9991,2 54202  53.2176 108.4514 0014141 211.9085 206.0958 15.86629309  1391,6689.878000000002,90.758,321.203,302.283,0.0
54202.0,STARLINK-5205,PAYLOAD,2022-11-04 14:00:01,15.85736628,0.001141,53.2176,106.7706,222.5701,299.9626,-0.0052662,-0.01158645,0.0,0 STARLINK-5205,1 54202U 22141AX  22308.58334491 -.01158645  00000-0 -52662-2 0  9990,2 54202  53.2176 106.7706 0011410 222.5701 299.9626 15.85736628  1300,6692.388000000001,90.81,321.889,306.617,0.0
54202.0,STARLINK-5205,PAYLOAD,2022-11-04 22:00:01,15.84875964,0.0009146,53.2173,105.0927,246.6786,19.3937,-0.0055606,-0.01189842,0.0,0 STARLINK-5205,1 54202U 22141AX  22308.91668981 -.01189842  00000-0 -55606-2 0  9995,2 54202  53.2173 105.0927 0009146 246.6786  19.3937 15.84875964  1492,6694.811,90.859,322.7990000000001,310.553,0.0
54202.0,STARLINK-5205,PAYLOAD,2022-11-05 12:00:00,15.83364084,0.0005353,53.217,102.1569,267.0626,87.5173,-0.0060482,-0.01197659,0.0,0 STARLINK-5205,1 54202U 22141AX  22309.50001157 -.01197659  00000-0 -60482-2 0  9990,2 54202  53.2170 102.1569 0005353 267.0626  87.5173 15.83364084  1590,6699.071999999999,90.946,324.523,317.351,0.0
54202.0,STARLINK-5205,PAYLOAD,2022-11-05 14:00:01,15.83165075,0.000447,53.2172,101.739,270.0502,199.8398,-0.006291,-0.01229129,0.0,0 STARLINK-5205,1 54202U 22141AX  22309.58335648 -.01229129  00000-0 -62910-2 0  9999,2 54202  53.2172 101.7390 0004470 270.0502 199.8398 15.83165075  1309,6699.6330000000025,90.957,324.493,318.504,0.0
54202.0,STARLINK-5205,PAYLOAD,2022-11-05 22:00:01,15.82283058,0.000534,53.2168,100.0676,270.3466,299.894,-0.0063951,-0.01202267,0.0,0 STARLINK-5205,1 54202U 22141AX  22309.91668981 -.01202267  00000-0 -63951-2 0  9995,2 54202  53.2168 100.0676 0005340 270.3466 299.8940 15.82283058  1307,6702.123000000001,91.008,327.567,320.409,0.0
54202.0,STARLINK-5205,PAYLOAD,2022-11-06 06:00:00,15.81398755,0.0003067,53.2171,98.3949,284.2957,25.1923,-0.0065167,-0.01176343,0.0,0 STARLINK-5205,1 54202U 22141AX  22310.25001157 -.01176343  00000-0 -65167-2 0  9996,2 54202  53.2171  98.3949 0003067 284.2957  25.1923 15.81398755  1701,6704.621,91.059,328.543,324.43,0.0
54202.0,STARLINK-5205,PAYLOAD,2022-11-06 14:00:01,15.80625471,0.0001937,53.217,96.7268,260.6344,147.0708,-0.0075929,-0.01303599,0.0,0 STARLINK-5205,1 54202U 22141AX  22310.58334491 -.01303599  00000-0 -75929-2 0  9994,2 54202  53.2170  96.7268 0001937 260.6344 147.0708 15.80625471  1306,6706.808000000001,91.103,329.972,327.374,0.0
54202.0,STARLINK-5205,PAYLOAD,2022-11-06 22:00:00,15.79741822,7.8e-05,53.2166,95.062,23.7609,121.1708,-0.0077678,-0.0128224,0.0,0 STARLINK-5205,1 54202U 22141AX  22310.91667824 -.01282240  00000-0 -77678-2 0  9992,2 54202  53.2166  95.0620 0000780  23.7609 121.1708 15.79741822  1818,6709.309,91.154,331.69699999999995,330.65,0.0
54202.0,STARLINK-5205,PAYLOAD,2022-11-07 14:00:01,15.77939358,0.0001009,53.2173,91.7338,65.52199999999999,270.7513,-0.0077883,-0.01195117,0.0,0 STARLINK-5205,1 54202U 22141AX  22311.58334491 -.01195117  00000-0 -77883-2 0  9991,2 54202  53.2173  91.7338 0001009  65.5220 270.7513 15.77939358  1921,6714.417,91.258,336.959,335.6040000000001,0.0
54202.0,STARLINK-5205,PAYLOAD,2022-11-07 22:00:00,15.77072795,0.000113,53.2171,90.0746,55.5054,14.8567,-0.0081058,-0.01196113,0.0,0 STARLINK-5205,1 54202U 22141AX  22311.91667824 -.01196113  00000-0 -81058-2 0  9993,2 54202  53.2171  90.0746 0001130  55.5054  14.8567 15.77072795  1304,6716.876,91.308,339.5,337.982,0.0
54202.0,STARLINK-5205,PAYLOAD,2022-11-08 06:00:00,15.76201815,0.0001346,53.2171,88.4148,51.4643,111.9469,-0.00839,-0.01191469,0.0,0 STARLINK-5205,1 54202U 22141AX  22312.25001157 -.01191469  00000-0 -83900-2 0  9999,2 54202  53.2171  88.4148 0001346  51.4643 111.9469 15.76201815  2025,6719.35,91.359,342.12,340.311,0.0
54202.0,STARLINK-5205,PAYLOAD,2022-11-08 14:00:01,15.75341126,0.0001209,53.217,86.7602,71.7353,183.6755,-0.0087935,-0.01200739,0.0,0 STARLINK-5205,1 54202U 22141AX  22312.58334491 -.01200739  00000-0 -87935-2 0  9998,2 54202  53.2170  86.7602 0001209  71.7353 183.6755 15.75341126  1304,6721.7980000000025,91.409,344.475,342.85,0.0
54202.0,STARLINK-5205,PAYLOAD,2022-11-08 22:00:00,15.74435508,0.0001156,53.2167,85.1075,55.5129,290.8654,-0.0084552999999999,-0.01119132,0.0,0 STARLINK-5205,1 54202U 22141AX  22312.91667824 -.01119132  00000-0 -84553-2 0  9993,2 54202  53.2167  85.1075 0001156  55.5129 290.8654 15.74435508  2137,6724.375,91.461,347.017,345.463,0.0
54202.0,STARLINK-5205,PAYLOAD,2022-11-09 04:00:00,15.73674175,0.0001128,53.2175,83.8667,65.2198,258.7085,-0.0043336,-0.00580339,0.0,0 STARLINK-5205,1 54202U 22141AX  22313.16667824 -.00580339  00000-0 -43336-2 0  9995,2 54202  53.2175  83.8667 0001128  65.2198 258.7085 15.73674175  2170,6726.544,91.506,349.167,347.65,0.0
54202.0,STARLINK-5205,PAYLOAD,2022-11-09 12:00:00,15.73317796,0.0001493,53.2157,82.2188,49.5753,3.5422,-0.00080527,-0.00112702,0.0,0 STARLINK-5205,1 54202U 22141AX  22313.50001157 -.00112702  00000-0 -80527-3 0  9993,2 54202  53.2157  82.2188 0001493  49.5753   3.5422 15.73317796  2228,6727.559,91.526,350.42900000000014,348.42,0.0
54202.0,STARLINK-5205,PAYLOAD,2022-11-09 14:00:01,15.73294908,0.000158,53.2155,81.8068,47.3321,118.0504,-0.0007142,-0.00100078,0.0,0 STARLINK-5205,1 54202U 22141AX  22313.58334491 -.00100078  00000-0 -71420-3 0  9996,2 54202  53.2155  81.8068 0001580  47.3321 118.0504 15.73294908  1302,6727.625,91.528,350.55300000000005,348.427,0.0
54202.0,STARLINK-5205,PAYLOAD,2022-11-09 22:00:01,15.7320784,0.0001626999999999,53.215,80.1575,42.5113,211.9268,-5.9136e-05,-8.914e-05,0.0,0 STARLINK-5205,1 54202U 22141AX  22313.91668981 -.00008914  00000-0 -59136-4 0  9994,2 54202  53.2150  80.1575 0001627  42.5113 211.9268 15.73207840  1309,6727.873000000001,91.533,350.832,348.64300000000014,0.0
54202.0,STARLINK-5205,PAYLOAD,2022-11-10 06:00:00,15.73171508,0.0001439,53.2152,78.5063,48.7857,294.536,0.00034893,0.00048574,0.0,0 STARLINK-5205,1 54202U 22141AX  22314.25001157  .00048574  00000-0  34893-3 0  9994,2 54202  53.2152  78.5063 0001439  48.7857 294.5360 15.73171508  2344,6727.976,91.535,350.81,348.87300000000016,0.0
54202.0,STARLINK-5205,PAYLOAD,2022-11-10 14:00:01,15.73191637,0.000164,53.2155,76.8587,43.886,28.3408,-0.00029086,-0.00041228,0.0,0 STARLINK-5205,1 54202U 22141AX  22314.58334491 -.00041228  00000-0 -29086-3 0  9999,2 54202  53.2155  76.8587 0001640  43.8860  28.3408 15.73191637  1309,6727.919,91.534,350.88699999999994,348.681,0.0
54202.0,STARLINK-5205,PAYLOAD,2022-11-10 20:00:01,15.7315383,0.0001867,53.2156,75.6222,42.0427,6.8682,0.00075951,0.00107131,0.0,0 STARLINK-5205,1 54202U 22141AX  22314.83334491  .00107131  00000-0  75951-3 0  9993,2 54202  53.2156  75.6222 0001867  42.0427   6.8682 15.73153830  2437,6728.026999999999,91.536,351.148,348.636,0.0
54202.0,STARLINK-5205,PAYLOAD,2022-11-10 22:00:00,15.73193094,0.0001828,53.2157,75.2094,42.3104,118.8164,0.0003707,0.00051712,0.0,0 STARLINK-5205,1 54202U 22141AX  22314.91667824  .00051712  00000-0  37070-3 0  9994,2 54202  53.2157  75.2094 0001828  42.3104 118.8164 15.73193094  1303,6727.915,91.534,351.01,348.55,0.0
54202.0,STARLINK-5205,PAYLOAD,2022-11-11 14:00:01,15.73246189,0.0001733,53.216,71.9102,35.5729,303.4714,-0.00062335,-0.00087377,0.0,0 STARLINK-5205,1 54202U 22141AX  22315.58334491 -.00087377  00000-0 -62335-3 0  9999,2 54202  53.2160  71.9102 0001733  35.5729 303.4714 15.73246189  2557,6727.763000000001,91.53,350.7940000000001,348.463,0.0
54202.0,STARLINK-5205,PAYLOAD,2022-11-11 22:00:00,15.73238604,0.0001819,53.2155,70.2606,30.2785,37.7136,-0.00024221,-0.00034532,0.0,0 STARLINK-5205,1 54202U 22141AX  22315.91667824 -.00034532  00000-0 -24221-3 0  9992,2 54202  53.2155  70.2606 0001819  30.2785  37.7136 15.73238604  2605,6727.785,91.531,350.874,348.426,0.0
54202.0,STARLINK-5205,PAYLOAD,2022-11-12 14:00:01,15.73275106,0.0001864,53.2158,66.9621,33.5816,212.3249,-0.00060211,-0.00084555,0.0,0 STARLINK-5205,1 54202U 22141AX  22316.58334491 -.00084555  00000-0 -60211-3 0  9996,2 54202  53.2158  66.9621 0001864  33.5816 212.3249 15.73275106  2703,6727.681,91.529,350.8,348.292,0.0
54202.0,STARLINK-5205,PAYLOAD,2022-11-12 22:00:00,15.7324225,0.0001852,53.2159,65.3121,27.2295,307.6533,-0.00069772,-0.00097596,0.0,0 STARLINK-5205,1 54202U 22141AX  22316.91667824 -.00097596  00000-0 -69772-3 0  9992,2 54202  53.2159  65.3121 0001852  27.2295 307.6533 15.73242250  1303,6727.775,91.531,350.886,348.394,0.0
54202.0,STARLINK-5205,PAYLOAD,2022-11-13 14:00:01,15.73122764,0.0001891,53.216,62.0135,16.555999999999994,136.1205,-0.00020778,-0.00029584,0.0,0 STARLINK-5205,1 54202U 22141AX  22317.58334491 -.00029584  00000-0 -20778-3 0  9992,2 54202  53.2160  62.0135 0001891  16.5560 136.1205 15.73122764  2863,6728.115,91.538,351.25300000000016,348.708,0.0
